GLOBALSTAR M035 [-]     
1 25851U 99037A   23309.72829609 -.00000041  00000+0  84506-3 0  9990
2 25851  51.9954 289.4955 0013742 104.6825  65.1042 11.04527392 31120
GLOBALSTAR M032 [-]     
1 25852U 99037B   23309.88284030 -.00000075  00000+0 -25701-3 0  9991
2 25852  51.9916 155.0110 0007064 253.6199 106.3824 11.19045375 68813
GLOBALSTAR M051 [-]     
1 25853U 99037C   23309.91657725 -.00000089  00000+0 -43249-3 0  9993
2 25853  51.9830  22.4164 0001462 226.5729 133.4960 11.42192555 65053
GLOBALSTAR M030 [-]     
1 25854U 99037D   23309.17246335 -.00000130  00000+0 -11625-2 0  9992
2 25854  51.9872 227.8296 0005223  63.8526 296.2827 11.55087641 81863
GLOBALSTAR M048 [-]     
1 25872U 99041A   23309.72008362 -.00000038  00000+0  85329-3 0  9993
2 25872  51.9375 295.1296 0012979 245.3609 285.6844 11.33840893 58119
GLOBALSTAR M026 [-]     
1 25873U 99041B   23309.60907494 -.00000118  00000+0 -19796-2 0  9999
2 25873  52.0030  53.9340 0001282  27.7981  74.0841 11.06828804 83405
GLOBALSTAR M043 [-]     
1 25874U 99041C   23309.94425682 -.00000059  00000+0  27466-3 0  9998
2 25874  51.9436  18.7567 0013263  28.8257 142.1453 11.25675510 56517
GLOBALSTAR M028 [-]     
1 25875U 99041D   23309.86282554 -.00000034  00000+0  42946-3 0  9992
2 25875  51.9603 150.2644 0062647 231.2087 128.3168 12.50543985116440
